{
    "links": {
        "self": "http://www.neowsapp.com/rest/v1/neo/3555204?api_key=iIulBulltgU6a56xZRHN4H3l9WmuAYTsLGpBGhQ2"
    },
    "id": "3555204",
    "neo_reference_id": "3555204",
    "name": "(2011 AL37)",
    "designation": "2011 AL37",
    "nasa_jpl_url": "http://ssd.jpl.nasa.gov/sbdb.cgi?sstr=3555204",
    "absolute_magnitude_h": 24.3,
    "estimated_diameter": {
        "kilometers": {
            "estimated_diameter_min": 0.0366906138,
            "estimated_diameter_max": 0.0820427065
        },
        "meters": {
            "estimated_diameter_min": 36.6906137531,
            "estimated_diameter_max": 82.0427064882
        },
        "miles": {
            "estimated_diameter_min": 0.0227984834,
            "estimated_diameter_max": 0.0509789586
        },
        "feet": {
            "estimated_diameter_min": 120.3760332259,
            "estimated_diameter_max": 269.1689931548
        }
    },
    "is_potentially_hazardous_asteroid": false,
    "close_approach_data": [
        {
            "close_approach_date": "1984-07-27",
            "close_approach_date_full": "1984-Jul-27 19:33",
            "epoch_date_close_approach": 459804780000,
            "relative_velocity": {
                "kilometers_per_second": "25.8642174816",
                "kilometers_per_hour": "93111.1829338529",
                "miles_per_hour": "57855.6680846488"
            },
            "miss_distance": {
                "astronomical": "0.3944789189",
                "lunar": "153.4522994521",
                "kilometers": "59013206.027342743",
                "miles": "36669105.8563581334"
            },
            "orbiting_body": "Earth"
        },
        {
            "close_approach_date": "2009-07-25",
            "close_approach_date_full": "2009-Jul-25 08:53",
            "epoch_date_close_approach": 1248511980000,
            "relative_velocity": {
                "kilometers_per_second": "24.2002834567",
                "kilometers_per_hour": "87121.0204440257",
                "miles_per_hour": "54133.6140642336"
            },
            "miss_distance": {
                "astronomical": "0.3377890694",
                "lunar": "131.3999479966",
                "kilometers": "50532525.291522178",
                "miles": "31399455.2040669364"
            },
            "orbiting_body": "Earth"
        },
        {
            "close_approach_date": "2011-01-26",
            "close_approach_date_full": "2011-Jan-26 21:51",
            "epoch_date_close_approach": 1296078660000,
            "relative_velocity": {
                "kilometers_per_second": "14.6276763418",
                "kilometers_per_hour": "52659.634830462",
                "miles_per_hour": "32720.6492089612"
            },
            "miss_distance": {
                "astronomical": "0.0057147539",
                "lunar": "2.2230392671",
                "kilometers": "854915.011014193",
                "miles": "531219.5548661434"
            },
            "orbiting_body": "Earth"
        },
        {
            "close_approach_date": "2011-01-26",
            "close_approach_date_full": "2011-Jan-26 22:51",
            "epoch_date_close_approach": 1296082260000,
            "relative_velocity": {
                "kilometers_per_second": "13.6023205675",
                "kilometers_per_hour": "48968.3540431346",
                "miles_per_hour": "30427.0308775244"
            },
            "miss_distance": {
                "astronomical": "0.0039172272",
                "lunar": "1.5238013808",
                "kilometers": "586008.845426064",
                "miles": "364129.0116611232"
            },
            "orbiting_body": "Moon"
        },
        {
            "close_approach_date": "2013-01-07",
            "close_approach_date_full": "2013-Jan-07 22:26",
            "epoch_date_close_approach": 1357597560000,
            "relative_velocity": {
                "kilometers_per_second": "12.9526793084",
                "kilometers_per_hour": "46629.6455103091",
                "miles_per_hour": "28973.8483450029"
            },
            "miss_distance": {
                "astronomical": "0.109749548",
                "lunar": "42.692574172",
                "kilometers": "16418298.61426276",
                "miles": "10201857.692475688"
            },
            "orbiting_body": "Venus"
        }
    ],
    "orbital_data": {
        "orbit_id": "13",
        "orbit_determination_date": "2017-04-06 08:54:58",
        "first_observation_date": "2011-01-13",
        "last_observation_date": "2011-01-26",
        "data_arc_in_days": 13,
        "observations_used": 137,
        "orbit_uncertainty": "7",
        "minimum_orbit_intersection": ".00316621",
        "jupiter_tisserand_invariant": "4.470",
        "epoch_osculation": "2459000.5",
        "eccentricity": ".5017212701658675",
        "semi_major_axis": "1.463354556680399",
        "inclination": "4.689871512615499",
        "ascending_node_longitude": "124.7380134398853",
        "orbital_period": "646.580753823195",
        "perihelion_distance": ".7291584497996993",
        "perihelion_argument": "79.36838503642576",
        "aphelion_distance": "2.1975506635611",
        "perihelion_time": "2458870.524073020153",
        "mean_anomaly": "72.36734690302865",
        "mean_motion": ".5567750012219519",
        "equinox": "J2000",
        "orbit_class": {
            "orbit_class_type": "APO",
            "orbit_class_description": "Near-Earth asteroid orbits which cross the Earth’s orbit similar to that of 1862 Apollo",
            "orbit_class_range": "a (semi-major axis) > 1.0 AU; q (perihelion) < 1.017 AU"
        }
    },
    "is_sentry_object": false
}